{
  "norad_id": 37216,
  "name": "COSMO-SKYMED 4",
  "history": [
    {
      "epoch": "2026-03-28T08:43:34.949280",
      "apogee_km": 623.5599381146203,
      "perigee_km": 621.4638038296735,
      "latitude_deg": 60.79174122250725,
      "longitude_deg": 96.50549920019694,
      "semi_major_axis_km": 7000.648870972146,
      "eccentricity": 0.00014971,
      "inclination_deg": 97.8884,
      "raan_deg": 272.1304,
      "arg_perigee_deg": 81.379,
      "mean_anomaly_deg": 278.7593,
      "mean_motion_rev_day": 14.82160786
    }
  ]
}